88P/Howell,e,4.3818,56.6691,235.8650,3.109063,0.1797876,0.56327740,359.6828,03/17.0/2026,2000,g 11.0,6.0
# From MPC191600
89P/Russell,e,12.0663,41.3380,250.4812,3.751923,0.1356198,0.40702354,97.7279,03/17.0/2026,2000,g 11.5,6.0
# From MPC191600
90P/Gehrels,e,9.6329,13.1444,29.2373,6.055857,0.0661364,0.51014659,210.8869,03/17.0/2026,2000,g  8.5,6.0
# From MPC191600
91P/Russell,e,15.9324,241.8881,356.8343,4.164217,0.1159856,0.25105686,249.3871,03/17.0/2026,2000,g  7.5,6.0
# From MPC191601
92P/Sanguin,e,19.4770,181.3327,163.7784,5.346122,0.0797344,0.65990942,321.2908,03/17.0/2026,2000,g 12.0,6.0
# From MPEC 2026-E44
93P/Lovas,e,12.2106,339.5496,75.0441,4.372147,0.1078107,0.61382979,354.9383,03/17.0/2026,2000,g  9.5,6.0
# From MPC191601
94P/Russell,e,6.1871,70.8357,92.3881,3.509543,0.1499092,0.36625670,154.4775,03/17.0/2026,2000,g  9.0,6.0
# From MPC191601
96P/Machholz,e,57.5769,93.9594,14.7422,3.030972,0.1867804,0.96173300,213.0004,03/17.0/2026,2000,g 13.0,4.8
# From MPC106348
96P-B/Machholz,e,57.5105,14.4891,94.0706,3.029968,0.1868732,0.96175007,213.1688,03/17.0/2026,2000,g 13.0,4.8
# From MPC191601
97P/Metcalf-Brewington,e,17.9310,184.0620,230.2423,4.771582,0.0945607,0.45956376,140.9300,03/17.0/2026,2000,g  5.5,6.0
# From MPC191601
98P/Takamizawa,e,10.9564,114.4848,159.0741,3.714601,0.1376689,0.59160235,254.2095,03/17.0/2026,2000,g  9.0,8.0
# From MPC191601
99P/Kowal,e,4.3395,28.0449,174.5054,6.092741,0.0655368,0.22903808,94.2381,03/17.0/2026,2000,g  4.5,6.0
# From MPC191601
100P/Hartley,e,25.5687,37.6861,181.8885,3.430197,0.1551406,0.41142687,204.0542,03/17.0/2026,2000,g  9.0,8.0
# From MPC191601
101P/Chernykh,e,5.0485,116.1118,278.0126,5.819554,0.0702052,0.59508357,158.3720,03/17.0/2026,2000,g 10.0,4.8
# From MPC191601
102P/Shoemaker,e,25.8444,339.3441,20.6974,3.821176,0.1319497,0.45571810,248.2653,03/17.0/2026,2000,g  6.5,8.0
# From MPC191602
103P/Hartley,e,13.6029,219.7627,181.3351,3.476295,0.1520649,0.69324458,134.8432,03/17.0/2026,2000,g  8.5,8.0
# From MPC191602
104P/Kowal,e,5.6998,207.1585,227.3379,3.208450,0.1714989,0.66581103,261.3950,03/17.0/2026,2000,g 16.0,4.0
# From MPC191602
105P/SingerBrewster,e,9.1685,192.3857,46.3067,3.472448,0.1523177,0.40919019,63.7143,03/17.0/2026,2000,g 11.5,6.0
# From MPC191602
106P/Schuster,e,19.5260,48.8648,353.8009,3.768921,0.1347034,0.59323006,225.1013,03/17.0/2026,2000,g 14.0,4.8
# From MPC191602
108P/Ciffreo,e,11.4300,50.2725,354.5650,3.744499,0.1360233,0.55537576,224.2702,03/17.0/2026,2000,g  8.0,12.0
# From MPC191602
109P/Swift-Tuttle,e,112.9019,139.8570,153.2451,26.18749,0.0073547,0.96320286,89.2853,03/17.0/2026,2000,g  4.5,6.0
# From MPC191602
110P/Hartley,e,11.7118,287.4817,167.5992,3.603217,0.1441015,0.31924457,231.8186,03/17.0/2026,2000,g  1.0,12.0
# From MPC191602
111P/Helin-Roman-Crockett,e,4.2261,89.7326,1.6157,4.153112,0.1164511,0.10711816,201.4716,03/17.0/2026,2000,g  5.0,8.0
# From MPC191602
112P/Urata-Niijima,e,24.2035,31.7965,21.5802,3.521467,0.1491484,0.59074525,331.8329,03/17.0/2026,2000,g 14.0,6.0
# From MPC191602
113P/Spitaler,e,5.2880,306.6098,115.7695,3.696903,0.1386587,0.41937936,191.9442,03/17.0/2026,2000,g 13.5,4.0
# From MPC191603
114P/Wiseman-Skiff,e,18.3034,271.0228,172.8435,3.538604,0.1480663,0.55610633,333.0533,03/17.0/2026,2000,g 11.5,6.0
# From MPC191603
115P/Maury,e,11.7027,175.8782,120.9783,4.269074,0.1117387,0.51905658,230.1372,03/17.0/2026,2000,g 10.5,6.0
# From MPC191603
116P/Wild,e,3.6053,20.9585,173.1496,3.484967,0.1514977,0.37109857,202.8336,03/17.0/2026,2000,g  2.5,10.0
# From MPEC 2026-E43
117P/Helin-Roman-Alu,e,8.6495,58.7434,225.0188,4.128182,0.1175076,0.24952224,158.3033,03/17.0/2026,2000,g  2.5,8.0
# From MPC191603
118P/Shoemaker-Levy,e,10.0934,142.0425,314.9855,3.349126,0.1608077,0.45376410,194.2544,03/17.0/2026,2000,g 12.0,4.0
# From MPC191603
119P/Parker-Hartley,e,7.3929,104.5409,322.3066,3.810639,0.1324974,0.38783101,173.9265,03/17.0/2026,2000,g  3.5,8.0
# From MPC191603
120P/Mueller,e,8.4784,358.6386,36.8496,3.970962,0.1245548,0.37377512,221.0810,03/17.0/2026,2000,g 12.0,4.0
# From MPC191603
121P/Shoemaker-Holt,e,20.1619,94.1056,12.1035,4.591393,0.1001815,0.18664247,99.1288,03/17.0/2026,2000,g  6.5,8.0
# From MPC191603
122P/deVico,e,85.9494,79.7265,13.0129,17.63628,0.0133074,0.96266591,147.9262,03/17.0/2026,2000,g  7.5,5.2
# From MPEC 2026-F34
123P/West-Hartley,e,15.2836,45.8735,103.8957,3.887502,0.1285873,0.44476975,335.6988,03/17.0/2026,2000,g  4.0,10.0
# From MPEC 2026-F34
124P/Mrkos,e,31.4045,359.9482,185.1164,3.377641,0.1587756,0.48633594,344.3461,03/17.0/2026,2000,g 13.5,2.8
# From MPC191604
125P/Spacewatch,e,9.9862,153.1529,87.0768,3.127050,0.1782387,0.51202831,131.8716,03/17.0/2026,2000,g 13.0,6.0
# From MPC191604
126P/IRAS,e,45.8738,357.8546,356.5404,5.624403,0.0738906,0.69579991,72.8798,03/17.0/2026,2000,g  6.0,8.0
# From MPC191604
127P/Holt-Olmstead,e,14.2913,13.6143,6.3373,3.455281,0.1534543,0.35840269,201.8746,03/17.0/2026,2000,g 11.0,6.0
# From MPEC 2026-E43
128P/Shoemaker-Holt,e,4.3716,214.3066,210.5572,4.480798,0.1039133,0.32225521,347.3216,03/17.0/2026,2000,g  8.5,4.0
# From MPC191604
129P/Shoemaker-Levy,e,3.4411,184.8335,308.0758,4.294956,0.1107302,0.08598585,132.6516,03/17.0/2026,2000,g 11.0,4.0
# From MPC191604
130P/McNaught-Hughes,e,6.0025,69.9023,247.2510,3.406320,0.1567747,0.46001888,109.6862,03/17.0/2026,2000,g 10.0,6.0
# From MPC191604
131P/Mueller,e,7.3624,214.1325,179.2754,3.673744,0.1399719,0.34459210,4.0974,03/17.0/2026,2000,g 11.0,4.0
# From MPC191604
132P/Helin-Roman-Alu,e,5.3758,173.9620,216.5268,3.893386,0.1282959,0.56363601,203.4191,03/17.0/2026,2000,g 11.0,6.0
# From MPC191604
134P/Kowal-Vavrova,e,4.3315,202.0182,18.5690,6.277577,0.0626637,0.58571940,272.7496,03/17.0/2026,2000,g 11.5,4.0
# From MPC191605
135P/Shoemaker-Levy,e,6.0617,213.0158,22.3110,3.802264,0.1329354,0.29319993,191.7142,03/17.0/2026,2000,g  7.0,8.0
# From MPEC 2026-E44
136P/Mueller,e,9.4287,137.3998,225.5113,4.190230,0.1149072,0.29354013,50.1879,03/17.0/2026,2000,g 11.0,4.0
# From MPC191605
137P/Shoemaker-Levy,e,4.8583,232.9302,141.1937,4.524738,0.1024033,0.57263582,271.3532,03/17.0/2026,2000,g 11.0,4.0
# From MPC191605
138P/Shoemaker-Levy,e,10.0984,309.2192,95.7585,3.615832,0.1433481,0.53142961,358.9495,03/17.0/2026,2000,g 15.0,6.0
# From MPC191605
139P/Vaisala-Oterma,e,2.3382,242.1270,166.0938,4.511978,0.1028380,0.24811595,309.2775,03/17.0/2026,2000,g  9.5,4.0
# From MPC191605
140P/Bowell-Skiff,e,3.6747,343.3502,172.1490,6.415418,0.0606550,0.69486558,236.9670,03/17.0/2026,2000,g 11.5,6.0
# From MPC191605
141P/Machholz,e,13.9603,241.7719,153.6499,3.056418,0.1844527,0.73581383,353.1766,03/17.0/2026,2000,g 12.0,12.0
# From MPEC 2015-KD9
141P-A/Machholz,e,13.9430,153.4939,241.9384,3.056837,0.1844147,0.73584708,353.1111,03/17.0/2026,2000,g 12.0,12.0
# From MPC 37026
141P-D/Machholz,e,13.8345,153.2188,242.1853,3.065137,0.1836662,0.73675016,348.5005,03/17.0/2026,2000,g 12.0,12.0
# From MPC186636
141P-H/Machholz,e,14.0165,241.8474,153.6246,3.045547,0.1854412,0.73457177,357.0734,03/17.0/2026,2000,g 18.5,4.0
# From MPEC 2022-SU8
141P-I/Machholz,e,13.9428,153.4495,241.9482,3.047122,0.1852974,0.73506306,354.8810,03/17.0/2026,2000,g 17.5,4.0
# From MPC191605
142P/Ge-Wang,e,12.2429,175.9631,174.0275,5.003492,0.0880632,0.49570706,156.0330,03/17.0/2026,2000,g  8.5,6.0
# From MPEC 2026-E44
143P/Kowal-Mrkos,e,5.3951,242.0449,304.8308,4.753005,0.0951156,0.37788366,332.7890,03/17.0/2026,2000,g 13.5,2.0
# From MPC191605
144P/Kushida,e,3.9308,242.9232,216.3880,3.835011,0.1312364,0.63490035,102.5134,03/17.0/2026,2000,g  8.5,8.0
# From MPEC 2026-EC7
145P/Shoemaker-Levy,e,11.2782,26.7665,10.4237,4.129386,0.1174562,0.54237366,5.1748,03/17.0/2026,2000,g 13.5,4.0
# From MPC191606
146P/Shoemaker-LINEAR,e,23.1175,53.3176,317.0128,4.021568,0.1222112,0.64761879,71.9395,03/17.0/2026,2000,g 15.0,4.0
# From MPC191606
147P/Kushida-Muramatsu,e,2.3112,91.6664,348.6508,4.009583,0.1227596,0.21152397,102.0162,03/17.0/2026,2000,g 14.0,4.0
# From MPC191606
148P/Anderson-LINEAR,e,3.6585,89.1942,8.1013,3.620279,0.1430840,0.55036429,196.2196,03/17.0/2026,2000,g 16.0,2.0
# From MPC191606
149P/Mueller,e,34.2601,143.7018,30.0446,4.135642,0.1171898,0.32464513,327.9442,03/17.0/2026,2000,g  8.0,8.0
# From MPC191606
150P/LONEOS,e,18.5472,272.0535,246.1293,3.872315,0.1293445,0.54938587,94.9808,03/17.0/2026,2000,g 13.5,4.0
# From MPC191606
151P/Helin,e,4.7218,143.0534,216.1896,5.768499,0.0711393,0.57214654,271.0483,03/17.0/2026,2000,g 10.0,6.0
# From MPC191606
152P/Helin-Lawrence,e,9.8795,91.7767,164.3805,4.486335,0.1037210,0.30643166,158.1909,03/17.0/2026,2000,g 11.5,4.0
# From MPC191606
153P/Ikeya-Zhang,e,28.4911,93.7927,34.2120,50.82273,0.0027203,0.99027820,0.0000,03/17.1092/2002,2000,g  7.0,4.0
# From MPC191606
154P/Brewington,e,17.6406,342.9949,47.9050,4.792609,0.0939390,0.67612302,60.3008,03/17.0/2026,2000,g  2.5,12.0
# From MPC191607
155P/Shoemaker,e,6.4105,97.1566,14.5499,6.572953,0.0584875,0.72773497,135.1511,03/17.0/2026,2000,g 10.0,4.8
# From MPC191607
156P/Russell-LINEAR,e,17.2559,35.3225,0.5333,3.462645,0.1529650,0.61469094,297.3428,03/17.0/2026,2000,g 15.5,2.0
# From MPC191607
157P/Tritton,e,12.4253,287.4954,155.1997,3.548424,0.1474520,0.55665728,189.2812,03/17.0/2026,2000,g 10.0,4.0
# From MPEC 2022-VC5
157P-B/Tritton,e,12.4272,153.8635,287.2425,3.102751,0.1803365,0.49980470,231.7928,03/17.0/2026,2000,g 15.7,4.0
# From MPC191607
158P/Kowal-LINEAR,e,7.5013,124.1492,234.5796,5.739657,0.0716762,0.11409231,88.9764,03/17.0/2026,2000,g  9.0,4.0
# From MPC191607
159P/LONEOS,e,23.4750,54.9354,4.7603,5.856515,0.0695417,0.38219103,198.3162,03/17.0/2026,2000,g 10.0,4.0
# From MPC191607
160P/LINEAR,e,15.5889,333.3125,12.7828,3.780754,0.1340715,0.52487021,308.2175,03/17.0/2026,2000,g 15.5,2.0
# From MPC191607
161P/Hartley-IRAS,e,95.7894,1.4775,47.0737,7.720572,0.0459441,0.83613994,348.2605,03/17.0/2026,2000,g  8.5,6.0
# From MPC191607
162P/SidingSpring,e,27.5521,30.8677,357.2508,3.091225,0.1813461,0.58284517,348.7847,03/17.0/2026,2000,g 12.0,4.0
# From MPC191607
